[{"OBJECT_NAME":"TEMPSAT 1","OBJECT_ID":"1965-065E","EPOCH":"2026-03-09T23:04:19.834752","MEAN_MOTION":13.33589233,"ECCENTRICITY":0.00702466,"INCLINATION":89.9938,"RA_OF_ASC_NODE":212.5862,"ARG_OF_PERICENTER":165.9273,"MEAN_ANOMALY":317.9391,"EPHEMERIS_TYPE":0,"CLASSIFICATION_TYPE":"U","NORAD_CAT_ID":1512,"ELEMENT_SET_NO":999,"REV_AT_EPOCH":94682,"BSTAR":8.3668831e-5,"MEAN_MOTION_DOT":5.1e-7,"MEAN_MOTION_DDOT":0},{"OBJECT_NAME":"HULIANWANG DIGUI-89","OBJECT_ID":"2025-231C","EPOCH":"2026-03-09T20:16:41.513088","MEAN_MOTION":13.29330419,"ECCENTRICITY":6.45e-5,"INCLINATION":49.9959,"RA_OF_ASC_NODE":172.0521,"ARG_OF_PERICENTER":209.6823,"MEAN_ANOMALY":150.4012,"EPHEMERIS_TYPE":0,"CLASSIFICATION_TYPE":"U","NORAD_CAT_ID":65997,"ELEMENT_SET_NO":999,"REV_AT_EPOCH":1967,"BSTAR":0.00011343065,"MEAN_MOTION_DOT":-7.1e-7,"MEAN_MOTION_DDOT":0}]
